*******************************************************************************
Ephemeris / WWW_USER Mon Jul 15 19:21:15 2024 Pasadena, USA      / Horizons    
*******************************************************************************
Target body name: (2019 AS11)                     {source: JPL#3}
Center body name: Earth (399)                     {source: DE441}
Center-site name: Gemini South Obs., Cerro Pachon
*******************************************************************************
Start time      : A.D. 2018-Nov-13 23:24:00.0000 UT      
Stop  time      : A.D. 2018-Nov-14 09:30:00.0000 UT      
Step-size       : 1 minutes
*******************************************************************************
Target pole/equ : undefined
Target radii    : undefined                                                    
Center geodetic : 289.2634, -30.2406227, 2.71233  {E-lon(deg),Lat(deg),Alt(km)}
Center cylindric: 289.2634,5517.21435,-3194.81213 {E-lon(deg),Dxy(km),Dz(km)}
Center pole/equ : ITRF93                          {East-longitude positive}
Center radii    : 6378.137, 6378.137, 6356.752 km {Equator_a, b, pole_c}       
Target primary  : Sun
Vis. interferer : MOON (R_eq= 1737.400) km        {source: DE441}
Rel. light bend : Sun                             {source: DE441}
Rel. lght bnd GM: 1.3271E+11 km^3/s^2                                          
Small-body perts: Yes                             {source: SB441-N16}
Atmos refraction: NO (AIRLESS)
RA format       : HMS
Time format     : CAL 
Calendar mode   : Mixed Julian/Gregorian
RTS-only print  : NO       
EOP file        : eop.240715.p241008                                           
EOP coverage    : DATA-BASED 1962-JAN-20 TO 2024-JUL-15. PREDICTS-> 2024-OCT-07
Units conversion: 1 au= 149597870.700 km, c= 299792.458 km/s, 1 day= 86400.0 s 
Table cut-offs 1: Elevation (-90.0deg=NO ),Airmass (>38.000=NO), Daylight (YES)
Table cut-offs 2: Solar elongation (  0.0,180.0=NO ),Local Hour Angle( 0.0=NO )
Table cut-offs 3: RA/DEC angular rate (     0.0=NO )                           
*******************************************************************************
Initial IAU76/J2000 heliocentric ecliptic osculating elements (au, days, deg.):
  EPOCH=  2458497.5 ! 2019-Jan-14.00 (TDB)         Residual RMS= .087899       
   EC= .1148313279028816   QR= .9946661968961306   TP= 2458526.093433633       
   OM= 299.8828960483019   W=  203.050931799211    IN= 7.281527766683049       
  Equivalent ICRF heliocentric cartesian coordinates (au, au/d):
   X=-3.982431103506237E-01  Y= 8.438985356712057E-01  Z= 3.820551439764541E-01
  VX=-1.601846206933958E-02 VY=-6.309373484980013E-03 VZ=-5.215303828559489E-03
Asteroid physical parameters (km, seconds, rotational period in hours):        
   GM= n.a.                RAD= n.a.               ROTPER= n.a.                
   H= 26.8                 G= .150                 B-V= n.a.                   
                           ALBEDO= n.a.            STYP= n.a.                  
*******************************************************************************
 Date__(UT)__HR:MN     R.A._________(ICRF)_________DEC
******************************************************
$$SOE
 2018-Nov-14 01:27  m  06 15 09.159655 +66 23 03.00672
 2018-Nov-14 01:28  m  06 15 09.289266 +66 23 04.05133
 2018-Nov-14 01:29  m  06 15 09.418746 +66 23 05.09593
 2018-Nov-14 01:30  m  06 15 09.548096 +66 23 06.14051
 2018-Nov-14 01:31  m  06 15 09.677315 +66 23 07.18508
 2018-Nov-14 01:32  m  06 15 09.806403 +66 23 08.22962
 2018-Nov-14 01:33  m  06 15 09.935360 +66 23 09.27414
 2018-Nov-14 01:34  m  06 15 10.064186 +66 23 10.31864
 2018-Nov-14 01:35  m  06 15 10.192882 +66 23 11.36310
 2018-Nov-14 01:36  m  06 15 10.321447 +66 23 12.40754
 2018-Nov-14 01:37  m  06 15 10.449881 +66 23 13.45193
 2018-Nov-14 01:38  m  06 15 10.578185 +66 23 14.49629
 2018-Nov-14 01:39  m  06 15 10.706358 +66 23 15.54061
 2018-Nov-14 01:40  m  06 15 10.834400 +66 23 16.58488
 2018-Nov-14 01:41  m  06 15 10.962312 +66 23 17.62910
 2018-Nov-14 01:42  m  06 15 11.090092 +66 23 18.67327
 2018-Nov-14 01:43  m  06 15 11.217743 +66 23 19.71738
 2018-Nov-14 01:44  m  06 15 11.345263 +66 23 20.76144
 2018-Nov-14 01:45  m  06 15 11.472652 +66 23 21.80543
 2018-Nov-14 01:46  m  06 15 11.599911 +66 23 22.84936
 2018-Nov-14 01:47  m  06 15 11.727039 +66 23 23.89323
 2018-Nov-14 01:48  m  06 15 11.854037 +66 23 24.93702
 2018-Nov-14 01:49  m  06 15 11.980904 +66 23 25.98074
 2018-Nov-14 01:50  m  06 15 12.107642 +66 23 27.02438
 2018-Nov-14 01:51  m  06 15 12.234248 +66 23 28.06794
 2018-Nov-14 01:52  m  06 15 12.360725 +66 23 29.11142
 2018-Nov-14 01:53  m  06 15 12.487072 +66 23 30.15481
 2018-Nov-14 01:54  m  06 15 12.613288 +66 23 31.19811
 2018-Nov-14 01:55  m  06 15 12.739374 +66 23 32.24132
 2018-Nov-14 01:56  m  06 15 12.865331 +66 23 33.28443
 2018-Nov-14 01:57  m  06 15 12.991157 +66 23 34.32745
 2018-Nov-14 01:58  m  06 15 13.116854 +66 23 35.37036
 2018-Nov-14 01:59  m  06 15 13.242421 +66 23 36.41317
 2018-Nov-14 02:00  m  06 15 13.367858 +66 23 37.45587
 2018-Nov-14 02:01  m  06 15 13.493165 +66 23 38.49845
 2018-Nov-14 02:02  m  06 15 13.618343 +66 23 39.54093
 2018-Nov-14 02:03  m  06 15 13.743391 +66 23 40.58328
 2018-Nov-14 02:04  m  06 15 13.868310 +66 23 41.62551
 2018-Nov-14 02:05  m  06 15 13.993099 +66 23 42.66763
 2018-Nov-14 02:06  m  06 15 14.117760 +66 23 43.70961
 2018-Nov-14 02:07  m  06 15 14.242291 +66 23 44.75146
 2018-Nov-14 02:08  m  06 15 14.366693 +66 23 45.79318
 2018-Nov-14 02:09  m  06 15 14.490966 +66 23 46.83477
 2018-Nov-14 02:10  m  06 15 14.615110 +66 23 47.87621
 2018-Nov-14 02:11  m  06 15 14.739125 +66 23 48.91751
 2018-Nov-14 02:12  m  06 15 14.863012 +66 23 49.95867
 2018-Nov-14 02:13  m  06 15 14.986770 +66 23 50.99967
 2018-Nov-14 02:14  m  06 15 15.110399 +66 23 52.04053
 2018-Nov-14 02:15  m  06 15 15.233901 +66 23 53.08123
 2018-Nov-14 02:16  m  06 15 15.357273 +66 23 54.12177
 2018-Nov-14 02:17  m  06 15 15.480518 +66 23 55.16215
 2018-Nov-14 02:18  m  06 15 15.603635 +66 23 56.20237
 2018-Nov-14 02:19  m  06 15 15.726624 +66 23 57.24242
 2018-Nov-14 02:20  m  06 15 15.849485 +66 23 58.28230
 2018-Nov-14 02:21  m  06 15 15.972218 +66 23 59.32200
 2018-Nov-14 02:22  m  06 15 16.094824 +66 24 00.36153
 2018-Nov-14 02:23  m  06 15 16.217302 +66 24 01.40088
 2018-Nov-14 02:24  m  06 15 16.339653 +66 24 02.44004
 2018-Nov-14 02:25  m  06 15 16.461877 +66 24 03.47903
 2018-Nov-14 02:26  m  06 15 16.583974 +66 24 04.51782
 2018-Nov-14 02:27  m  06 15 16.705944 +66 24 05.55642
 2018-Nov-14 02:28  m  06 15 16.827787 +66 24 06.59482
 2018-Nov-14 02:29  m  06 15 16.949504 +66 24 07.63303
 2018-Nov-14 02:30  m  06 15 17.071094 +66 24 08.67103
 2018-Nov-14 02:31  m  06 15 17.192558 +66 24 09.70884
 2018-Nov-14 02:32  m  06 15 17.313896 +66 24 10.74643
 2018-Nov-14 02:33  m  06 15 17.435107 +66 24 11.78381
 2018-Nov-14 02:34  m  06 15 17.556193 +66 24 12.82099
 2018-Nov-14 02:35  m  06 15 17.677153 +66 24 13.85794
 2018-Nov-14 02:36  m  06 15 17.797988 +66 24 14.89468
 2018-Nov-14 02:37  m  06 15 17.918697 +66 24 15.93119
 2018-Nov-14 02:38  m  06 15 18.039281 +66 24 16.96748
 2018-Nov-14 02:39  m  06 15 18.159740 +66 24 18.00354
 2018-Nov-14 02:40  m  06 15 18.280074 +66 24 19.03937
 2018-Nov-14 02:41  m  06 15 18.400283 +66 24 20.07496
 2018-Nov-14 02:42  m  06 15 18.520367 +66 24 21.11032
 2018-Nov-14 02:43  m  06 15 18.640328 +66 24 22.14543
 2018-Nov-14 02:44  m  06 15 18.760164 +66 24 23.18030
 2018-Nov-14 02:45  m  06 15 18.879876 +66 24 24.21493
 2018-Nov-14 02:46  m  06 15 18.999464 +66 24 25.24931
 2018-Nov-14 02:47  m  06 15 19.118929 +66 24 26.28343
 2018-Nov-14 02:48  m  06 15 19.238270 +66 24 27.31730
 2018-Nov-14 02:49  m  06 15 19.357488 +66 24 28.35091
 2018-Nov-14 02:50  m  06 15 19.476583 +66 24 29.38426
 2018-Nov-14 02:51  m  06 15 19.595555 +66 24 30.41735
 2018-Nov-14 02:52  m  06 15 19.714404 +66 24 31.45017
 2018-Nov-14 02:53  m  06 15 19.833131 +66 24 32.48272
 2018-Nov-14 02:54  m  06 15 19.951736 +66 24 33.51499
 2018-Nov-14 02:55  m  06 15 20.070218 +66 24 34.54699
 2018-Nov-14 02:56  m  06 15 20.188579 +66 24 35.57871
 2018-Nov-14 02:57  m  06 15 20.306818 +66 24 36.61015
 2018-Nov-14 02:58  m  06 15 20.424935 +66 24 37.64131
 2018-Nov-14 02:59  m  06 15 20.542932 +66 24 38.67217
 2018-Nov-14 03:00  m  06 15 20.660807 +66 24 39.70275
 2018-Nov-14 03:01  m  06 15 20.778561 +66 24 40.73303
 2018-Nov-14 03:02  m  06 15 20.896195 +66 24 41.76302
 2018-Nov-14 03:03  m  06 15 21.013709 +66 24 42.79271
 2018-Nov-14 03:04  m  06 15 21.131102 +66 24 43.82209
 2018-Nov-14 03:05  m  06 15 21.248376 +66 24 44.85117
 2018-Nov-14 03:06  m  06 15 21.365529 +66 24 45.87994
 2018-Nov-14 03:07  m  06 15 21.482564 +66 24 46.90840
 2018-Nov-14 03:08  m  06 15 21.599479 +66 24 47.93655
 2018-Nov-14 03:09  m  06 15 21.716275 +66 24 48.96438
 2018-Nov-14 03:10  m  06 15 21.832952 +66 24 49.99189
 2018-Nov-14 03:11  m  06 15 21.949511 +66 24 51.01908
 2018-Nov-14 03:12  m  06 15 22.065952 +66 24 52.04594
 2018-Nov-14 03:13  m  06 15 22.182275 +66 24 53.07247
 2018-Nov-14 03:14  m  06 15 22.298480 +66 24 54.09868
 2018-Nov-14 03:15  m  06 15 22.414567 +66 24 55.12455
 2018-Nov-14 03:16  m  06 15 22.530537 +66 24 56.15008
 2018-Nov-14 03:17  m  06 15 22.646391 +66 24 57.17528
 2018-Nov-14 03:18  m  06 15 22.762127 +66 24 58.20013
 2018-Nov-14 03:19  m  06 15 22.877747 +66 24 59.22463
 2018-Nov-14 03:20  m  06 15 22.993251 +66 25 00.24879
 2018-Nov-14 03:21  m  06 15 23.108639 +66 25 01.27260
 2018-Nov-14 03:22  m  06 15 23.223911 +66 25 02.29606
 2018-Nov-14 03:23  m  06 15 23.339067 +66 25 03.31916
 2018-Nov-14 03:24  m  06 15 23.454109 +66 25 04.34190
 2018-Nov-14 03:25  m  06 15 23.569036 +66 25 05.36428
 2018-Nov-14 03:26  m  06 15 23.683848 +66 25 06.38629
 2018-Nov-14 03:27  m  06 15 23.798545 +66 25 07.40794
 2018-Nov-14 03:28  m  06 15 23.913129 +66 25 08.42921
 2018-Nov-14 03:29  m  06 15 24.027599 +66 25 09.45012
